#aV2010  5 16  0  0   .00000000      96 DD+AD WGS84 FIT  NGA
## 1584       .00000000   900.00000000 55332  .0000000000000
+   31     1  2  3  4  5  6  7  8  9 10 11 12 13 14 15 16 17
+         18 19 20 21 22 23 24 26 27 28 29 30 31 32  0  0  0
+          0  0  0  0  0  0  0  0  0  0  0  0  0  0  0  0  0
+          0  0  0  0  0  0  0  0  0  0  0  0  0  0  0  0  0
+          0  0  0  0  0  0  0  0  0  0  0  0  0  0  0  0  0
++         0  0  0  0  0  0  0  0  0  0  0  0  0  0  0  0  0
++         0  0  0  0  0  0  0  0  0  0  0  0  0  0  0  0  0
++         0  0  0  0  0  0  0  0  0  0  0  0  0  0  0  0  0
++         0  0  0  0  0  0  0  0  0  0  0  0  0  0  0  0  0
++         0  0  0  0  0  0  0  0  0  0  0  0  0  0  0  0  0
%c cc cc ccc ccc cccc cccc cccc cccc ccccc ccccc ccccc ccccc
%c cc cc ccc ccc cccc cccc cccc cccc ccccc ccccc ccccc ccccc
%f  0.0000000  0.000000000  0.00000000000  0.000000000000000
%f  0.0000000  0.000000000  0.00000000000  0.000000000000000
%i    0    0    0    0      0      0      0      0         0
%i    0    0    0    0      0      0      0      0         0
/*      NGA, ST. LOUIS,MO.                                  
/*   EPHEMERIS COMPUTED FROM  3 DAYS OF DATA                
/* CCCCCCCCCCCCCCCCCCCCCCCCCCCCCCCCCCCCCCCCCCCCCCCCCCCCCCCCC
/* CCCCCCCCCCCCCCCCCCCCCCCCCCCCCCCCCCCCCCCCCCCCCCCCCCCCCCCCC
*  2010  5 16  4  0   .00000000                                                 
P  1   2626.107502  15580.308923 -21458.256527   -120.369171                    
V  1 -23800.601507  12685.023325   6474.842575      -.040606                    
P  2 -13937.445995 -12373.422326 -19108.309092    256.041022                    
V  2   1378.882197 -24135.346058  14184.168130       .034141                    
P  3  24849.895329   9679.791664   1705.933275    555.545199                    
V  3    893.287182   4337.580969 -30662.338763       .050457                    
P  4  -6819.720328 -23541.459847  -9938.165749     82.851452                    
V  4   3584.210711 -12469.361310  27906.253145       .083510                    
P  5 -20821.847038  -1599.549153 -16479.797920     -3.208813                    
V  5  17312.390181 -11784.194850 -20669.959255      -.010760                    
P  6  23132.426837  13161.682930   -979.928479    638.510450                    
V  6  -2952.891658   2436.770906 -31023.676946      -.111839                    
P  7   6762.628418 -23896.425718  -9193.215087      -.502436                    
V  7   2136.240709  11739.742791 -29139.912335      -.003260                    
P  8    193.419922 -26070.858932   3215.571768      5.386868                    
V  8   2567.273337  -3940.257871 -32466.023926       .001849                    
P  9 -13924.127341   7142.044756  20911.627348      6.799056                    
V  9   -998.527970 -27769.631408   8644.738718       .022237                    
P 10 -13739.711790  -9517.042878 -20894.993213    -42.664943                    
V 10  22749.009764 -12737.585731  -8896.420951      -.008199                    
P 11  13287.687336 -12141.038615  19179.687332    -62.841421                    
V 11   7375.611526  24314.846669  10509.784374      -.023388                    
P 12 -23686.324686  11749.139821   1426.362357   -114.918480                    
V 12    290.952183  -3147.427012  32010.085072       .042635                    
P 13   8773.223314 -11652.106884 -22338.894004    304.391994                    
V 13  22894.012650  15998.186431    621.911186      -.004004                    
P 14  11116.176110  19201.786714  14834.034813     46.053236                    
V 14 -16158.699049  -9105.957138  23991.064870       .043670                    
P 15 -23582.304078  -4054.897804  11668.592118   -272.281124                    
V 15 -11547.560234  -9533.087908 -26563.509125       .057799                    
P 16  16787.672375   6357.229769 -19626.637839    -71.900861                    
V 16 -21632.293859  12352.818201 -14198.355974      -.037896                    
P 17 -10258.422865 -19243.307911  15409.352507    150.985943                    
V 17  17312.223133   8733.559507  22377.042570       .023492                    
P 18 -12479.625486  18493.858662  14386.787178     68.489645                    
V 18 -17265.864550   5904.282993 -23374.923375       .024391                    
P 19  22831.574305   5092.319561  12901.689201    -35.238592                    
V 19  11978.804883  11137.995794 -25358.305473      -.026966                    
P 20  22395.671243 -14201.875682   -969.890476     56.071684                    
V 20   2764.259709   2528.591010  31235.106107      -.005907                    
P 21  -4313.890824  25353.055191  -4788.738102    -60.436993                    
V 21  -3995.523993  -6754.617397 -30713.347167      -.026045                    
P 22   -421.187912  17170.620008  20400.523179    172.020825                    
V 22 -23295.298204  10821.736474  -9756.624755      -.008368                    
P 23  16918.716764  -5644.806171 -19809.187788    370.678073                    
V 23  20815.681407  13833.382081  13545.461646      -.013982                    
P 24   1038.546631  26401.338745   3963.183577    287.681829                    
V 24  -3225.854995   4686.986586 -30805.588804       .032438                    
P 26 -18638.090237   1803.371668  18445.409556    -52.462368                    
V 26 -19499.050548 -14652.768220 -17335.185407      -.050917                    
P 27 -14969.056493   3099.823534  22393.743252    152.345257                    
V 27  -1207.556835 -26733.860378   3136.712413       .033958                    
P 28   3008.840609 -17217.387004  20389.769689    -16.117110                    
V 28  22642.488579 -10405.029879 -12702.197763       .009820                    
P 29  -9233.370143  12099.204066 -21670.928854    120.186514                    
V 29 -23257.264585 -15135.752708   1491.890306       .026469                    
P 30 -17363.126324  18121.662409  -9003.876576    243.032155                    
V 30 -10689.513790   3440.523305  28858.223813       .034872                    
P 31   7510.694476  22384.876040 -11778.508616    -36.327501                    
V 31  -2433.085316  15272.127749  27171.012016       .020914                    
P 32  24876.576068  -5853.783807   6896.106275     28.458103                    
V 32  -6459.949512   6108.171272  30303.265911      -.085095                    
EOF
